{"type":"FeatureCollection", "features": [
{"type":"Feature","geometry":{"type":"Polygon","coordinates":[[[6.673,52.16],[6.671,52.156],[6.673,52.155],[6.673,52.151],[6.674,52.143],[6.668,52.137],[6.663,52.13],[6.716,52.118],[6.761,52.119],[6.751,52.085],[6.735,52.075],[6.696,52.07],[6.688,52.04],[6.714,52.04],[6.753,52.028],[6.811,51.998],[6.827,51.994],[6.829,51.964],[6.799,51.959],[6.794,51.935],[6.77,51.916],[6.754,51.913],[6.722,51.896],[6.693,51.915],[6.675,51.916],[6.638,51.904],[6.586,51.894],[6.556,51.882],[6.501,51.868],[6.5,51.862],[6.465,51.855],[6.451,51.865],[6.429,51.865],[6.391,51.873],[6.388,51.862],[6.408,51.854],[6.407,51.828],[6.363,51.835],[6.345,51.851],[6.306,51.849],[6.301,51.865],[6.28,51.874],[6.262,51.868],[6.215,51.868],[6.184,51.883],[6.191,51.892],[6.168,51.901],[6.091,51.939],[6.09,51.968],[6.105,51.967],[6.129,51.978],[6.16,51.981],[6.159,52],[6.158,52.002],[6.157,52.004],[6.161,52.014],[6.167,52.016],[6.174,52.018],[6.177,52.02],[6.177,52.022],[6.177,52.025],[6.177,52.031],[6.176,52.036],[6.176,52.039],[6.159,52.037],[6.152,52.042],[6.148,52.042],[6.122,52.035],[6.111,52.042],[6.132,52.056],[6.103,52.078],[6.068,52.088],[6.024,52.067],[6.006,52.066],[6.009,52.074],[6.034,52.098],[6.052,52.124],[6.07,52.131],[6.076,52.144],[6.106,52.152],[6.16,52.162],[6.185,52.161],[6.194,52.174],[6.157,52.198],[6.184,52.204],[6.189,52.217],[6.181,52.223],[6.174,52.226],[6.17,52.229],[6.166,52.231],[6.167,52.231],[6.217,52.226],[6.339,52.227],[6.338,52.236],[6.382,52.246],[6.416,52.242],[6.429,52.223],[6.479,52.183],[6.496,52.177],[6.518,52.181],[6.555,52.177],[6.59,52.182],[6.612,52.163],[6.645,52.174],[6.673,52.16]]]},"properties":{"statcode":"CR14","jrstatcode":"2024CR14","statnaam":"Achterhoek","rubriek":"coropgebied","id":14,"FID":"coropgebied_gegeneraliseerd.ee38e0c3-f8b8-46f0-96a5-c4e57f5c50cf"},"id":"CR14"}
]}