{
  "type": "FeatureCollection",
  "features": [
    {
      "type": "Feature",
      "properties": {
        "name": "Gendringen"
      },
      "geometry": {
        "type": "Point",
        "coordinates": [
          6.3750059,
          51.8722058
        ]
      },
      "id": "node/44171693"
    },
    {
      "type": "Feature",
      "properties": {
        "name": "'s-Heerenberg"
      },
      "geometry": {
        "type": "Point",
        "coordinates": [
          6.2548363,
          51.8779448
        ]
      },
      "id": "node/44196313"
    },
    {
      "type": "Feature",
      "properties": {
        "name": "Lengel"
      },
      "geometry": {
        "type": "Point",
        "coordinates": [
          6.2665629,
          51.8836637
        ]
      },
      "id": "node/44228274"
    },
    {
      "type": "Feature",
      "properties": {
        "name": "Azewijn"
      },
      "geometry": {
        "type": "Point",
        "coordinates": [
          6.3045083,
          51.8860697
        ]
      },
      "id": "node/44251201"
    },
    {
      "type": "Feature",
      "properties": {
        "name": "Ulft"
      },
      "geometry": {
        "type": "Point",
        "coordinates": [
          6.384324,
          51.8909559
        ]
      },
      "id": "node/44299709"
    },
    {
      "type": "Feature",
      "properties": {
        "name": "Zeddam"
      },
      "geometry": {
        "type": "Point",
        "coordinates": [
          6.2575837,
          51.9029083
        ]
      },
      "id": "node/44314745"
    },
    {
      "type": "Feature",
      "properties": {
        "name": "Sinderen"
      },
      "geometry": {
        "type": "Point",
        "coordinates": [
          6.460831,
          51.9044651
        ]
      },
      "id": "node/44327437"
    },
    {
      "type": "Feature",
      "properties": {
        "name": "Silvolde"
      },
      "geometry": {
        "type": "Point",
        "coordinates": [
          6.386857,
          51.9134729
        ]
      },
      "id": "node/44366690"
    },
    {
      "type": "Feature",
      "properties": {
        "name": "Loerbeek"
      },
      "geometry": {
        "type": "Point",
        "coordinates": [
          6.1985107,
          51.9196971
        ]
      },
      "id": "node/44391928"
    },
    {
      "type": "Feature",
      "properties": {
        "name": "Terborg"
      },
      "geometry": {
        "type": "Point",
        "coordinates": [
          6.3614794,
          51.9211908
        ]
      },
      "id": "node/44402960"
    },
    {
      "type": "Feature",
      "properties": {
        "name": "Braamt"
      },
      "geometry": {
        "type": "Point",
        "coordinates": [
          6.2654688,
          51.9245379
        ]
      },
      "id": "node/44420285"
    },
    {
      "type": "Feature",
      "properties": {
        "name": "Aalten"
      },
      "geometry": {
        "type": "Point",
        "coordinates": [
          6.5810265,
          51.9285963
        ]
      },
      "id": "node/44439974"
    },
    {
      "type": "Feature",
      "properties": {
        "name": "Nieuw-Dijk"
      },
      "geometry": {
        "type": "Point",
        "coordinates": [
          6.1553049,
          51.9314584
        ]
      },
      "id": "node/44456028"
    },
    {
      "type": "Feature",
      "properties": {
        "name": "Gaanderen"
      },
      "geometry": {
        "type": "Point",
        "coordinates": [
          6.3513556,
          51.9370522
        ]
      },
      "id": "node/44486540"
    },
    {
      "type": "Feature",
      "properties": {
        "name": "Didam"
      },
      "geometry": {
        "type": "Point",
        "coordinates": [
          6.1275981,
          51.937228
        ]
      },
      "id": "node/44488732"
    },
    {
      "type": "Feature",
      "properties": {
        "name": "Kilder"
      },
      "geometry": {
        "type": "Point",
        "coordinates": [
          6.2325918,
          51.9368058
        ]
      },
      "id": "node/44493427"
    },
    {
      "type": "Feature",
      "properties": {
        "name": "Kotten"
      },
      "geometry": {
        "type": "Point",
        "coordinates": [
          6.7686321,
          51.9419967
        ]
      },
      "id": "node/44511895"
    },
    {
      "type": "Feature",
      "properties": {
        "name": "Varsseveld"
      },
      "geometry": {
        "type": "Point",
        "coordinates": [
          6.4636436,
          51.9438019
        ]
      },
      "id": "node/44521285"
    },
    {
      "type": "Feature",
      "properties": {
        "name": "Miste"
      },
      "geometry": {
        "type": "Point",
        "coordinates": [
          6.6595521,
          51.9446123
        ]
      },
      "id": "node/44531210"
    },
    {
      "type": "Feature",
      "properties": {
        "name": "Loil"
      },
      "geometry": {
        "type": "Point",
        "coordinates": [
          6.1409792,
          51.9540767
        ]
      },
      "id": "node/44573624"
    },
    {
      "type": "Feature",
      "properties": {
        "name": "Wehl"
      },
      "geometry": {
        "type": "Point",
        "coordinates": [
          6.2119757,
          51.9629701
        ]
      },
      "id": "node/44618594"
    },
    {
      "type": "Feature",
      "properties": {
        "name": "Nieuw-Wehl"
      },
      "geometry": {
        "type": "Point",
        "coordinates": [
          6.1724975,
          51.9688151
        ]
      },
      "id": "node/44651859"
    },
    {
      "type": "Feature",
      "properties": {
        "name": "Winterswijk"
      },
      "geometry": {
        "type": "Point",
        "coordinates": [
          6.7224185,
          51.9746432
        ]
      },
      "id": "node/44678480"
    },
    {
      "type": "Feature",
      "properties": {
        "name": "Harreveld"
      },
      "geometry": {
        "type": "Point",
        "coordinates": [
          6.5161187,
          51.9785595
        ]
      },
      "id": "node/44693837"
    },
    {
      "type": "Feature",
      "properties": {
        "name": "Vragender"
      },
      "geometry": {
        "type": "Point",
        "coordinates": [
          6.6117029,
          51.9863387
        ]
      },
      "id": "node/44736341"
    },
    {
      "type": "Feature",
      "properties": {
        "name": "Halle"
      },
      "geometry": {
        "type": "Point",
        "coordinates": [
          6.4284297,
          51.9905212
        ]
      },
      "id": "node/44753399"
    },
    {
      "type": "Feature",
      "properties": {
        "name": "Laag-Keppel"
      },
      "geometry": {
        "type": "Point",
        "coordinates": [
          6.2220115,
          51.9969245
        ]
      },
      "id": "node/44784893"
    },
    {
      "type": "Feature",
      "properties": {
        "name": "Hoog-Keppel"
      },
      "geometry": {
        "type": "Point",
        "coordinates": [
          6.1990651,
          52.0052598
        ]
      },
      "id": "node/44821315"
    },
    {
      "type": "Feature",
      "properties": {
        "name": "Drempt"
      },
      "geometry": {
        "type": "Point",
        "coordinates": [
          6.17455,
          52.00824
        ]
      },
      "id": "node/44836198"
    },
    {
      "type": "Feature",
      "properties": {
        "name": "Mariënvelde"
      },
      "geometry": {
        "type": "Point",
        "coordinates": [
          6.4717324,
          52.011484
        ]
      },
      "id": "node/44850032"
    },
    {
      "type": "Feature",
      "properties": {
        "name": "Meddo"
      },
      "geometry": {
        "type": "Point",
        "coordinates": [
          6.708816,
          52.0137815
        ]
      },
      "id": "node/44859832"
    },
    {
      "type": "Feature",
      "properties": {
        "name": "Keijenborg"
      },
      "geometry": {
        "type": "Point",
        "coordinates": [
          6.2968665,
          52.0306125
        ]
      },
      "id": "node/44933693"
    },
    {
      "type": "Feature",
      "properties": {
        "name": "Groenlo"
      },
      "geometry": {
        "type": "Point",
        "coordinates": [
          6.6170412,
          52.0425903
        ]
      },
      "id": "node/44981687"
    },
    {
      "type": "Feature",
      "properties": {
        "name": "Olburgen"
      },
      "geometry": {
        "type": "Point",
        "coordinates": [
          6.12463,
          52.04545
        ]
      },
      "id": "node/45004778"
    },
    {
      "type": "Feature",
      "properties": {
        "name": "Hengelo"
      },
      "geometry": {
        "type": "Point",
        "coordinates": [
          6.3112579,
          52.0522752
        ]
      },
      "id": "node/45036026"
    },
    {
      "type": "Feature",
      "properties": {
        "name": "Toldijk"
      },
      "geometry": {
        "type": "Point",
        "coordinates": [
          6.2223119,
          52.0545868
        ]
      },
      "id": "node/45043852"
    },
    {
      "type": "Feature",
      "properties": {
        "name": "Beltrum"
      },
      "geometry": {
        "type": "Point",
        "coordinates": [
          6.5630936,
          52.0670884
        ]
      },
      "id": "node/45099480"
    },
    {
      "type": "Feature",
      "properties": {
        "name": "Baak"
      },
      "geometry": {
        "type": "Point",
        "coordinates": [
          6.2253899,
          52.0767538
        ]
      },
      "id": "node/45138951"
    },
    {
      "type": "Feature",
      "properties": {
        "name": "Brummen"
      },
      "geometry": {
        "type": "Point",
        "coordinates": [
          6.1568633,
          52.087327
        ]
      },
      "id": "node/45186545"
    },
    {
      "type": "Feature",
      "properties": {
        "name": "Ruurlo"
      },
      "geometry": {
        "type": "Point",
        "coordinates": [
          6.4493595,
          52.087683
        ]
      },
      "id": "node/45189353"
    },
    {
      "type": "Feature",
      "properties": {
        "name": "Rekken"
      },
      "geometry": {
        "type": "Point",
        "coordinates": [
          6.7229304,
          52.096195
        ]
      },
      "id": "node/45226014"
    },
    {
      "type": "Feature",
      "properties": {
        "name": "Eibergen"
      },
      "geometry": {
        "type": "Point",
        "coordinates": [
          6.6511683,
          52.1032685
        ]
      },
      "id": "node/45256010"
    },
    {
      "type": "Feature",
      "properties": {
        "name": "Borculo"
      },
      "geometry": {
        "type": "Point",
        "coordinates": [
          6.5180361,
          52.114854
        ]
      },
      "id": "node/45306242"
    },
    {
      "type": "Feature",
      "properties": {
        "name": "Barchem"
      },
      "geometry": {
        "type": "Point",
        "coordinates": [
          6.4437256,
          52.1253892
        ]
      },
      "id": "node/45356220"
    },
    {
      "type": "Feature",
      "properties": {
        "name": "Rietmolen"
      },
      "geometry": {
        "type": "Point",
        "coordinates": [
          6.6625951,
          52.1405464
        ]
      },
      "id": "node/45435505"
    },
    {
      "type": "Feature",
      "properties": {
        "name": "Noordijk"
      },
      "geometry": {
        "type": "Point",
        "coordinates": [
          6.5712002,
          52.1459035
        ]
      },
      "id": "node/45451424"
    },
    {
      "type": "Feature",
      "properties": {
        "name": "Empe"
      },
      "geometry": {
        "type": "Point",
        "coordinates": [
          6.1404026,
          52.1553831
        ]
      },
      "id": "node/45495975"
    },
    {
      "type": "Feature",
      "properties": {
        "name": "Almen"
      },
      "geometry": {
        "type": "Point",
        "coordinates": [
          6.3015597,
          52.1572821
        ]
      },
      "id": "node/45504014"
    },
    {
      "type": "Feature",
      "properties": {
        "name": "Lochem"
      },
      "geometry": {
        "type": "Point",
        "coordinates": [
          6.4144888,
          52.158471
        ]
      },
      "id": "node/45508317"
    },
    {
      "type": "Feature",
      "properties": {
        "name": "Gelselaar"
      },
      "geometry": {
        "type": "Point",
        "coordinates": [
          6.5274624,
          52.1692171
        ]
      },
      "id": "node/45548165"
    },
    {
      "type": "Feature",
      "properties": {
        "name": "Gorssel"
      },
      "geometry": {
        "type": "Point",
        "coordinates": [
          6.2002185,
          52.1996486
        ]
      },
      "id": "node/45665862"
    },
    {
      "type": "Feature",
      "properties": {
        "name": "Harfsen"
      },
      "geometry": {
        "type": "Point",
        "coordinates": [
          6.297922,
          52.2075015
        ]
      },
      "id": "node/45703498"
    },
    {
      "type": "Feature",
      "properties": {
        "name": "Joppe"
      },
      "geometry": {
        "type": "Point",
        "coordinates": [
          6.2310317,
          52.2083685
        ]
      },
      "id": "node/45707323"
    },
    {
      "type": "Feature",
      "properties": {
        "name": "Epse"
      },
      "geometry": {
        "type": "Point",
        "coordinates": [
          6.2000576,
          52.2253703
        ]
      },
      "id": "node/45787357"
    },
    {
      "type": "Feature",
      "properties": {
        "name": "Doetinchem"
      },
      "geometry": {
        "type": "Point",
        "coordinates": [
          6.2891093,
          51.9655192
        ]
      },
      "id": "node/760709245"
    },
    {
      "type": "Feature",
      "properties": {
        "name": "Laren"
      },
      "geometry": {
        "type": "Point",
        "coordinates": [
          6.3663172,
          52.1922028
        ]
      },
      "id": "node/1920540067"
    },
    {
      "type": "Feature",
      "properties": {
        "name": "Hummelo"
      },
      "geometry": {
        "type": "Point",
        "coordinates": [
          6.2350264,
          52.0053791
        ]
      },
      "id": "node/2951425021"
    },
    {
      "type": "Feature",
      "properties": {
        "name": "Zutphen"
      },
      "geometry": {
        "type": "Point",
        "coordinates": [
          6.194772,
          52.1396933
        ]
      },
      "id": "node/2979682499"
    },
    {
      "type": "Feature",
      "properties": {
        "name": "Breedenbroek"
      },
      "geometry": {
        "type": "Point",
        "coordinates": [
          6.4723596,
          51.8730662
        ]
      },
      "id": "node/3130260132"
    },
    {
      "type": "Feature",
      "properties": {
        "name": "Geesteren"
      },
      "geometry": {
        "type": "Point",
        "coordinates": [
          6.5255713,
          52.1392401
        ]
      },
      "id": "node/3251765889"
    },
    {
      "type": "Feature",
      "properties": {
        "name": "Haarlo"
      },
      "geometry": {
        "type": "Point",
        "coordinates": [
          6.580833,
          52.1126272
        ]
      },
      "id": "node/3257102713"
    },
    {
      "type": "Feature",
      "properties": {
        "name": "Etten"
      },
      "geometry": {
        "type": "Point",
        "coordinates": [
          6.3404632,
          51.9161169
        ]
      },
      "id": "node/3263073470"
    },
    {
      "type": "Feature",
      "properties": {
        "name": "Vorden"
      },
      "geometry": {
        "type": "Point",
        "coordinates": [
          6.3126099,
          52.1041075
        ]
      },
      "id": "node/3263629100"
    },
    {
      "type": "Feature",
      "properties": {
        "name": "Eefde"
      },
      "geometry": {
        "type": "Point",
        "coordinates": [
          6.2269387,
          52.1709839
        ]
      },
      "id": "node/3440500854"
    },
    {
      "type": "Feature",
      "properties": {
        "name": "Westendorp"
      },
      "geometry": {
        "type": "Point",
        "coordinates": [
          6.4126431,
          51.9502068
        ]
      },
      "id": "node/3482246324"
    },
    {
      "type": "Feature",
      "properties": {
        "name": "Lichtenvoorde"
      },
      "geometry": {
        "type": "Point",
        "coordinates": [
          6.5716944,
          51.9890577
        ]
      },
      "id": "node/4836957099"
    },
    {
      "type": "Feature",
      "properties": {
        "name": "Veldhoek"
      },
      "geometry": {
        "type": "Point",
        "coordinates": [
          6.412195,
          52.0458265
        ]
      },
      "id": "node/4836957100"
    },
    {
      "type": "Feature",
      "properties": {
        "name": "Megchelen"
      },
      "geometry": {
        "type": "Point",
        "coordinates": [
          6.3921648,
          51.8382457
        ]
      },
      "id": "node/5067356961"
    },
    {
      "type": "Feature",
      "properties": {
        "name": "Steenderen"
      },
      "geometry": {
        "type": "Point",
        "coordinates": [
          6.1875742,
          52.063858
        ]
      },
      "id": "node/5310370362"
    },
    {
      "type": "Feature",
      "properties": {
        "name": "Bronkhorst"
      },
      "geometry": {
        "type": "Point",
        "coordinates": [
          6.1790949,
          52.0761073
        ]
      },
      "id": "node/5310681731"
    },
    {
      "type": "Feature",
      "properties": {
        "name": "Dinxperlo"
      },
      "geometry": {
        "type": "Point",
        "coordinates": [
          6.4879872,
          51.863757
        ]
      },
      "id": "node/5352845157"
    },
    {
      "type": "Feature",
      "properties": {
        "name": "Bredevoort"
      },
      "geometry": {
        "type": "Point",
        "coordinates": [
          6.6181276,
          51.943829
        ]
      },
      "id": "node/5551500263"
    },
    {
      "type": "Feature",
      "properties": {
        "name": "Varsselder"
      },
      "geometry": {
        "type": "Point",
        "coordinates": [
          6.3598534,
          51.8882512
        ]
      },
      "id": "node/5551500264"
    },
    {
      "type": "Feature",
      "properties": {
        "name": "Stokkum"
      },
      "geometry": {
        "type": "Point",
        "coordinates": [
          6.2214782,
          51.8790298
        ]
      },
      "id": "node/5551500265"
    },
    {
      "type": "Feature",
      "properties": {
        "name": "Wichmond"
      },
      "geometry": {
        "type": "Point",
        "coordinates": [
          6.2598585,
          52.0895792
        ]
      },
      "id": "node/5571778789"
    },
    {
      "type": "Feature",
      "properties": {
        "name": "Lievelde"
      },
      "geometry": {
        "type": "Point",
        "coordinates": [
          6.5934562,
          52.010889
        ]
      },
      "id": "node/5611299016"
    },
    {
      "type": "Feature",
      "properties": {
        "name": "Zelhem"
      },
      "geometry": {
        "type": "Point",
        "coordinates": [
          6.3500598,
          52.0068482
        ]
      },
      "id": "node/5611304319"
    },
    {
      "type": "Feature",
      "properties": {
        "name": "Neede"
      },
      "geometry": {
        "type": "Point",
        "coordinates": [
          6.6113394,
          52.1350286
        ]
      },
      "id": "node/7104661313"
    },
    {
      "type": "Feature",
      "properties": {
        "name": "Velswijk"
      },
      "geometry": {
        "type": "Point",
        "coordinates": [
          6.3064206,
          52.0100925
        ]
      },
      "id": "node/7160551005"
    },
    {
      "type": "Feature",
      "properties": {
        "name": "Achter-Drempt"
      },
      "geometry": {
        "type": "Point",
        "coordinates": [
          6.1817381,
          52.0230316
        ]
      },
      "id": "node/7188616572"
    },
    {
      "type": "Feature",
      "properties": {
        "name": "Hall"
      },
      "geometry": {
        "type": "Point",
        "coordinates": [
          6.1034783,
          52.1107509
        ]
      },
      "id": "node/8226931688"
    },
    {
      "type": "Feature",
      "properties": {
        "name": "Eerbeek"
      },
      "geometry": {
        "type": "Point",
        "coordinates": [
          6.0662773,
          52.1050018
        ]
      },
      "id": "node/8226931690"
    },
    {
      "type": "Feature",
      "properties": {
        "name": "Kranenburg"
      },
      "geometry": {
        "type": "Point",
        "coordinates": [
          6.3572792,
          52.1016339
        ]
      },
      "id": "node/8226957244"
    },
    {
      "type": "Feature",
      "properties": {
        "name": "Leuvenheim"
      },
      "geometry": {
        "type": "Point",
        "coordinates": [
          6.1412509,
          52.0738469
        ]
      },
      "id": "node/9115622644"
    },
    {
      "type": "Feature",
      "properties": {
        "name": "Zieuwent"
      },
      "geometry": {
        "type": "Point",
        "coordinates": [
          6.5194467,
          52.0038435
        ]
      },
      "id": "node/9165017571"
    },
    {
      "type": "Feature",
      "properties": {
        "name": "Beek"
      },
      "geometry": {
        "type": "Point",
        "coordinates": [
          6.1892782,
          51.9078816
        ]
      },
      "id": "node/9171978482"
    },
    {
      "type": "Feature",
      "properties": {
        "name": "Warnsveld"
      },
      "geometry": {
        "type": "Point",
        "coordinates": [
          6.2268734,
          52.1443409
        ]
      },
      "id": "node/9178154470"
    },
    {
      "type": "Feature",
      "properties": {
        "name": "Woold"
      },
      "geometry": {
        "type": "Point",
        "coordinates": [
          6.7171143,
          51.9288258
        ]
      },
      "id": "node/10056478806"
    },
    {
      "type": "Feature",
      "properties": {
        "name": "Netterden"
      },
      "geometry": {
        "type": "Point",
        "coordinates": [
          6.3130429,
          51.8563227
        ]
      },
      "id": "node/10166482754"
    },
    {
      "type": "Feature",
      "properties": {
        "name": "De Heurne"
      },
      "geometry": {
        "type": "Point",
        "coordinates": [
          6.4913731,
          51.8895744
        ]
      },
      "id": "node/10169151497"
    },
    {
      "type": "Feature",
      "properties": {
        "name": "Wijnbergen"
      },
      "geometry": {
        "type": "Point",
        "coordinates": [
          6.2854008,
          51.9533936
        ]
      },
      "id": "node/11244554501"
    }
  ]
}